{
  "type": "FeatureCollection",
  "features": [
    {
      "type": "Feature",
      "properties": {
        "norad_id": 66174,
        "name": "HTV-X1",
        "group": "stations",
        "lat": 31.03779381022031,
        "lon": -108.88720370685567,
        "alt_km": 415.31197983310085,
        "timestamp": "2025-12-21T09:37:21.406219+00:00",
        "meta_object_name": "HTV-X1",
        "meta_object_id": "2025-241A",
        "meta_epoch": "2025-12-20T16:00:06.135552",
        "meta_mean_motion": 15.49686708,
        "meta_eccentricity": 0.00031636,
        "meta_inclination": 51.6321,
        "meta_ra_of_asc_node": 103.2234,
        "meta_arg_of_pericenter": 277.4707,
        "meta_mean_anomaly": 82.5922,
        "meta_ephemeris_type": 0,
        "meta_classification_type": "U",
        "meta_norad_cat_id": 66174,
        "meta_element_set_no": 999,
        "meta_rev_at_epoch": 51,
        "meta_bstar": 0.00013711052,
        "meta_mean_motion_dot": 7.293e-05,
        "meta_mean_motion_ddot": 0,
        "tle_line1": "1 66174U 25241A   25354.66673768  .00007293  00000+0  13711-3 0  9992",
        "tle_line2": "2 66174  51.6321 103.2234 0003163 277.4707  82.5922 15.49686708   514"
      },
      "geometry": {
        "type": "Point",
        "coordinates": [
          -108.88720370685567,
          31.03779381022031
        ]
      }
    },
    {
      "type": "Feature",
      "properties": {
        "norad_id": 66515,
        "name": "SZ-21 MODULE",
        "group": "stations",
        "lat": -34.459708703576645,
        "lon": -165.83377669481766,
        "alt_km": 380.6994438592128,
        "timestamp": "2025-12-21T09:37:21.406230+00:00",
        "meta_object_name": "SZ-21 MODULE",
        "meta_object_id": "2025-246C",
        "meta_epoch": "2025-12-21T02:28:16.864608",
        "meta_mean_motion": 15.62895195,
        "meta_eccentricity": 0.0005393,
        "meta_inclination": 41.4772,
        "meta_ra_of_asc_node": 325.0132,
        "meta_arg_of_pericenter": 304.7401,
        "meta_mean_anomaly": 55.2931,
        "meta_ephemeris_type": 0,
        "meta_classification_type": "U",
        "meta_norad_cat_id": 66515,
        "meta_element_set_no": 999,
        "meta_rev_at_epoch": 575,
        "meta_bstar": 0.00023274,
        "meta_mean_motion_dot": 0.00021377,
        "meta_mean_motion_ddot": 0,
        "tle_line1": "1 66515U 25246C   25355.10297297  .00021377  00000+0  23274-3 0  9999",
        "tle_line2": "2 66515  41.4772 325.0132 0005393 304.7401  55.2931 15.62895195  5758"
      },
      "geometry": {
        "type": "Point",
        "coordinates": [
          -165.83377669481766,
          -34.459708703576645
        ]
      }
    },
    {
      "type": "Feature",
      "properties": {
        "norad_id": 66645,
        "name": "SHENZHOU-22",
        "group": "stations",
        "lat": -28.438662432245806,
        "lon": -178.0646535401336,
        "alt_km": 394.0358484090657,
        "timestamp": "2025-12-21T09:37:21.406240+00:00",
        "meta_object_name": "SHENZHOU-22",
        "meta_object_id": "2025-272A",
        "meta_epoch": "2025-12-20T23:26:14.890272",
        "meta_mean_motion": 15.59514827,
        "meta_eccentricity": 0.00077445,
        "meta_inclination": 41.4685,
        "meta_ra_of_asc_node": 326.6888,
        "meta_arg_of_pericenter": 103.1948,
        "meta_mean_anomaly": 256.9755,
        "meta_ephemeris_type": 0,
        "meta_classification_type": "U",
        "meta_norad_cat_id": 66645,
        "meta_element_set_no": 999,
        "meta_rev_at_epoch": 26519,
        "meta_bstar": 0.00017446348,
        "meta_mean_motion_dot": 0.00013949,
        "meta_mean_motion_ddot": 0,
        "tle_line1": "1 66645U 25272A   25354.97656123  .00013949  00000+0  17446-3 0  9993",
        "tle_line2": "2 66645  41.4685 326.6888 0007744 103.1948 256.9755 15.59514827265195"
      },
      "geometry": {
        "type": "Point",
        "coordinates": [
          -178.0646535401336,
          -28.438662432245806
        ]
      }
    },
    {
      "type": "Feature",
      "properties": {
        "norad_id": 66664,
        "name": "SOYUZ-MS 28",
        "group": "stations",
        "lat": 31.037758870761408,
        "lon": -108.88716086649124,
        "alt_km": 415.3125149681937,
        "timestamp": "2025-12-21T09:37:21.406250+00:00",
        "meta_object_name": "SOYUZ-MS 28",
        "meta_object_id": "2025-275A",
        "meta_epoch": "2025-12-20T16:00:06.134688",
        "meta_mean_motion": 15.49686708,
        "meta_eccentricity": 0.0003164,
        "meta_inclination": 51.6321,
        "meta_ra_of_asc_node": 103.2234,
        "meta_arg_of_pericenter": 277.4707,
        "meta_mean_anomaly": 82.5922,
        "meta_ephemeris_type": 0,
        "meta_classification_type": "U",
        "meta_norad_cat_id": 66664,
        "meta_element_set_no": 999,
        "meta_rev_at_epoch": 367,
        "meta_bstar": 0.00013711,
        "meta_mean_motion_dot": 7.293e-05,
        "meta_mean_motion_ddot": 0,
        "tle_line1": "1 66664U 25275A   25354.66673767  .00007293  00000+0  13711-3 0  9992",
        "tle_line2": "2 66664  51.6321 103.2234 0003164 277.4707  82.5922 15.49686708  3679"
      },
      "geometry": {
        "type": "Point",
        "coordinates": [
          -108.88716086649124,
          31.037758870761408
        ]
      }
    },
    {
      "type": "Feature",
      "properties": {
        "norad_id": 66906,
        "name": "1998-067XS",
        "group": "stations",
        "lat": -19.33926011734742,
        "lon": -64.40773203367598,
        "alt_km": 415.0116716545226,
        "timestamp": "2025-12-21T09:37:21.406261+00:00",
        "meta_object_name": "1998-067XS",
        "meta_object_id": "1998-067XS",
        "meta_epoch": "2025-12-20T11:05:35.991168",
        "meta_mean_motion": 15.50962254,
        "meta_eccentricity": 0.00030029,
        "meta_inclination": 51.6311,
        "meta_ra_of_asc_node": 104.1082,
        "meta_arg_of_pericenter": 237.5,
        "meta_mean_anomaly": 122.5699,
        "meta_ephemeris_type": 0,
        "meta_classification_type": "U",
        "meta_norad_cat_id": 66906,
        "meta_element_set_no": 999,
        "meta_rev_at_epoch": 281,
        "meta_bstar": 0.00037246497,
        "meta_mean_motion_dot": 0.00021596,
        "meta_mean_motion_ddot": 0,
        "tle_line1": "1 66906U 98067XS  25354.46222212  .00021596  00000+0  37246-3 0  9994",
        "tle_line2": "2 66906  51.6311 104.1082 0003002 237.5000 122.5699 15.50962254  2818"
      },
      "geometry": {
        "type": "Point",
        "coordinates": [
          -64.40773203367598,
          -19.33926011734742
        ]
      }
    },
    {
      "type": "Feature",
      "properties": {
        "norad_id": 66907,
        "name": "1998-067XT",
        "group": "stations",
        "lat": -49.804672863301874,
        "lon": -10.994214777922599,
        "alt_km": 411.57135660845415,
        "timestamp": "2025-12-21T09:37:21.406272+00:00",
        "meta_object_name": "1998-067XT",
        "meta_object_id": "1998-067XT",
        "meta_epoch": "2025-12-19T11:42:50.767776",
        "meta_mean_motion": 15.52255247,
        "meta_eccentricity": 0.0003998,
        "meta_inclination": 51.6306,
        "meta_ra_of_asc_node": 108.8528,
        "meta_arg_of_pericenter": 265.7173,
        "meta_mean_anomaly": 94.336,
        "meta_ephemeris_type": 0,
        "meta_classification_type": "U",
        "meta_norad_cat_id": 66907,
        "meta_element_set_no": 999,
        "meta_rev_at_epoch": 266,
        "meta_bstar": 0.00077339,
        "meta_mean_motion_dot": 0.00047666,
        "meta_mean_motion_ddot": 0,
        "tle_line1": "1 66907U 98067XT  25353.48808759  .00047666  00000+0  77339-3 0  9995",
        "tle_line2": "2 66907  51.6306 108.8528 0003998 265.7173  94.3360 15.52255247  2660"
      },
      "geometry": {
        "type": "Point",
        "coordinates": [
          -10.994214777922599,
          -49.804672863301874
        ]
      }
    },
    {
      "type": "Feature",
      "properties": {
        "norad_id": 66908,
        "name": "1998-067XU",
        "group": "stations",
        "lat": -50.88699031888867,
        "lon": -3.6509759497454635,
        "alt_km": 411.3347989887907,
        "timestamp": "2025-12-21T09:37:21.406283+00:00",
        "meta_object_name": "1998-067XU",
        "meta_object_id": "1998-067XU",
        "meta_epoch": "2025-12-21T00:46:29.963136",
        "meta_mean_motion": 15.52510982,
        "meta_eccentricity": 0.0003904,
        "meta_inclination": 51.6311,
        "meta_ra_of_asc_node": 101.1653,
        "meta_arg_of_pericenter": 276.2494,
        "meta_mean_anomaly": 83.8051,
        "meta_ephemeris_type": 0,
        "meta_classification_type": "U",
        "meta_norad_cat_id": 66908,
        "meta_element_set_no": 999,
        "meta_rev_at_epoch": 290,
        "meta_bstar": 0.00080289,
        "meta_mean_motion_dot": 0.00049977,
        "meta_mean_motion_ddot": 0,
        "tle_line1": "1 66908U 98067XU  25355.03229124  .00049977  00000+0  80289-3 0  9997",
        "tle_line2": "2 66908  51.6311 101.1653 0003904 276.2494  83.8051 15.52510982  2909"
      },
      "geometry": {
        "type": "Point",
        "coordinates": [
          -3.6509759497454635,
          -50.88699031888867
        ]
      }
    }
  ]
}